[{"OBJECT_NAME":"STARLINK-33700","OBJECT_ID":"2025-070AA","EPOCH":"2026-03-09T22:13:18.311232","MEAN_MOTION":15.27617072,"ECCENTRICITY":0.00033371,"INCLINATION":43.0051,"RA_OF_ASC_NODE":258.3516,"ARG_OF_PERICENTER":267.5654,"MEAN_ANOMALY":92.4816,"EPHEMERIS_TYPE":0,"CLASSIFICATION_TYPE":"U","NORAD_CAT_ID":63484,"ELEMENT_SET_NO":999,"REV_AT_EPOCH":5301,"BSTAR":0.00084330617,"MEAN_MOTION_DOT":0.00023045,"MEAN_MOTION_DDOT":0},{"OBJECT_NAME":"SIMSAT 2","OBJECT_ID":"2000-026B","EPOCH":"2026-03-09T20:25:01.673184","MEAN_MOTION":15.29036787,"ECCENTRICITY":0.00037035,"INCLINATION":86.3514,"RA_OF_ASC_NODE":176.4271,"ARG_OF_PERICENTER":287.9875,"MEAN_ANOMALY":72.0969,"EPHEMERIS_TYPE":0,"CLASSIFICATION_TYPE":"U","NORAD_CAT_ID":26366,"ELEMENT_SET_NO":999,"REV_AT_EPOCH":42803,"BSTAR":0.00013465771,"MEAN_MOTION_DOT":3.833e-5,"MEAN_MOTION_DDOT":0}]
